{
    "links": {
        "self": "http://www.neowsapp.com/rest/v1/neo/3758844?api_key=iIulBulltgU6a56xZRHN4H3l9WmuAYTsLGpBGhQ2"
    },
    "id": "3758844",
    "neo_reference_id": "3758844",
    "name": "(2016 RY)",
    "designation": "2016 RY",
    "nasa_jpl_url": "http://ssd.jpl.nasa.gov/sbdb.cgi?sstr=3758844",
    "absolute_magnitude_h": 25.6,
    "estimated_diameter": {
        "kilometers": {
            "estimated_diameter_min": 0.0201629919,
            "estimated_diameter_max": 0.0450858206
        },
        "meters": {
            "estimated_diameter_min": 20.1629919443,
            "estimated_diameter_max": 45.0858206172
        },
        "miles": {
            "estimated_diameter_min": 0.0125286985,
            "estimated_diameter_max": 0.0280150214
        },
        "feet": {
            "estimated_diameter_min": 66.1515504905,
            "estimated_diameter_max": 147.9193637137
        }
    },
    "is_potentially_hazardous_asteroid": false,
    "close_approach_data": [
        {
            "close_approach_date": "1923-08-19",
            "close_approach_date_full": "1923-Aug-19 06:42",
            "epoch_date_close_approach": -1463332680000,
            "relative_velocity": {
                "kilometers_per_second": "4.2695577408",
                "kilometers_per_hour": "15370.4078670141",
                "miles_per_hour": "9550.5737104788"
            },
            "miss_distance": {
                "astronomical": "0.053681854",
                "lunar": "20.882241206",
                "kilometers": "8030691.01605098",
                "miles": "4990040.006144324"
            },
            "orbiting_body": "Earth"
        },
        {
            "close_approach_date": "2016-08-28",
            "close_approach_date_full": "2016-Aug-28 06:35",
            "epoch_date_close_approach": 1472366100000,
            "relative_velocity": {
                "kilometers_per_second": "4.9778792639",
                "kilometers_per_hour": "17920.3653501504",
                "miles_per_hour": "11135.0181254865"
            },
            "miss_distance": {
                "astronomical": "0.051089949",
                "lunar": "19.873990161",
                "kilometers": "7642947.54880863",
                "miles": "4749107.387793894"
            },
            "orbiting_body": "Earth"
        }
    ],
    "orbital_data": {
        "orbit_id": "8",
        "orbit_determination_date": "2020-09-22 06:43:44",
        "first_observation_date": "2016-09-03",
        "last_observation_date": "2016-10-07",
        "data_arc_in_days": 34,
        "observations_used": 61,
        "orbit_uncertainty": "7",
        "minimum_orbit_intersection": ".0501369",
        "jupiter_tisserand_invariant": "4.696",
        "epoch_osculation": "2459000.5",
        "eccentricity": ".2699736932579943",
        "semi_major_axis": "1.407433725345011",
        "inclination": "4.2881612810276",
        "ascending_node_longitude": "183.960241036569",
        "orbital_period": "609.8743343866456",
        "perihelion_distance": "1.027463644497761",
        "perihelion_argument": "128.8950852844205",
        "aphelion_distance": "1.787403806192261",
        "perihelion_time": "2458827.949099038384",
        "mean_anomaly": "101.8543015236977",
        "mean_motion": ".5902855386791349",
        "equinox": "J2000",
        "orbit_class": {
            "orbit_class_type": "AMO",
            "orbit_class_description": "Near-Earth asteroid orbits similar to that of 1221 Amor",
            "orbit_class_range": "1.017 AU < q (perihelion) < 1.3 AU"
        }
    },
    "is_sentry_object": false
}